OBJECT_NAME,OBJECT_ID,EPOCH,MEAN_MOTION,ECCENTRICITY,INCLINATION,RA_OF_ASC_NODE,ARG_OF_PERICENTER,MEAN_ANOMALY,EPHEMERIS_TYPE,CLASSIFICATION_TYPE,NORAD_CAT_ID,ELEMENT_SET_NO,REV_AT_EPOCH,BSTAR,MEAN_MOTION_DOT,MEAN_MOTION_DDOT
STARLINK-30197,2023-105P,2026-07-05T18:42:04.029120,15.27562790,.00020111,43.0034,312.8102,259.6123,100.4502,0,U,57443,999,16364,-.18146591E-3,-.525E-4,0
STARLINK-30181,2023-105Q,2026-07-05T18:48:44.212320,15.27598923,.00012962,43.0010,316.2532,279.5971,80.4734,0,U,57444,999,16366,-.20136141E-3,-.5802E-4,0
STARLINK-30215,2023-105R,2026-07-05T17:48:38.296224,15.27561445,.00022347,43.0056,313.3926,271.0221,89.0375,0,U,57445,999,16347,-.10612787E-3,-.318E-4,0
STARLINK-30162,2023-105S,2026-07-05T09:30:09.272160,15.27576402,.0001559,43.0022,304.0529,203.7809,156.2971,0,U,57446,999,16371,-.16462E-4,-.715E-5,0
STARLINK-30178,2023-105T,2026-07-05T09:52:16.707072,15.27579844,.0002047,43.0034,315.2087,274.3356,85.7262,0,U,57447,999,16358,.11744E-4,.61E-6,0
STARLINK-30196,2023-105U,2026-07-05T10:46:52.408416,15.27599677,.0000882,43.0007,318.0374,262.1130,97.9622,0,U,57448,999,16339,.59616E-3,.16189E-3,0
STARLINK-30225,2023-105V,2026-07-05T18:43:13.447200,15.27554833,.00017136,43.0073,316.2188,278.8185,81.2473,0,U,57449,999,16366,-.21660854E-3,-.6213E-4,0
STARLINK-30217,2023-105W,2026-07-05T09:33:54.647424,15.27539092,.0001464,43.0030,304.1226,236.1413,123.9300,0,U,57450,999,16371,-.18255E-3,-.5276E-4,0
STARLINK-30216,2023-105X,2026-07-05T18:08:48.112224,15.27546516,.000185,43.0047,312.6510,264.9517,95.1123,0,U,57451,999,16348,-.17946604E-3,-.5192E-4,0
STARLINK-30165,2023-107A,2026-07-05T20:02:34.544256,15.27566810,.00019109,43.0006,29.0776,247.8614,112.2035,0,U,57457,999,16320,-.29442254E-4,-.1072E-4,0
STARLINK-30140,2023-107B,2026-07-05T21:02:43.740096,15.27523644,.00017201,43.0026,31.9422,280.8151,79.2507,0,U,57458,999,16318,-.64205579E-3,-.17858E-3,0
STARLINK-30077,2023-107D,2026-07-05T23:43:59.936160,15.27577126,.00006575,43.0032,27.6592,298.1519,61.9266,0,U,57460,999,16324,-.1907489E-4,-.787E-5,0
STARLINK-30229,2023-107E,2026-07-05T23:53:53.729664,15.27544795,.00013114,43.0008,35.3790,261.9427,98.1276,0,U,57461,999,16315,-.27048774E-3,-.769E-4,0
STARLINK-30088,2023-107F,2026-07-05T20:09:59.696064,15.27563737,.00013524,43.0035,29.1152,258.6022,101.4678,0,U,57462,999,16321,-.87921035E-4,-.2679E-4,0
STARLINK-30116,2023-107J,2026-07-05T19:55:11.695008,15.27560574,.00011377,43.0050,29.0390,257.3490,102.7234,0,U,57465,999,16321,-.27101612E-4,-.1007E-4,0
STARLINK-30092,2023-107L,2026-07-05T21:34:54.018048,15.27593670,.00029806,43.0033,28.6973,280.9038,79.1478,0,U,57467,999,16322,-.28667643E-3,-.8147E-4,0
STARLINK-30039,2023-107M,2026-07-05T23:14:36.577824,15.27557452,.00015141,43.0033,28.3564,264.1389,95.9290,0,U,57468,999,16323,-.27436057E-4,-.1017E-4,0
STARLINK-30171,2023-107N,2026-07-05T22:42:25.848000,15.27551790,.0001819,43.0046,31.5982,281.2718,78.7929,0,U,57469,999,16319,-.22231556E-3,-.637E-4,0
STARLINK-30186,2023-107P,2026-07-06T06:00:04.000320,15.47897046,.00018719,43.0007,31.1104,283.8500,128.2081,0,U,57470,999,527,.31131263E-2,.169494E-2,0
STARLINK-30204,2023-107R,2026-07-05T13:23:45.727296,15.27564234,.0000638,43.0054,30.4378,289.5084,70.5699,0,U,57472,999,16317,-.10734E-3,-.3213E-4,0
STARLINK-30155,2023-107U,2026-07-05T20:37:34.445280,15.27525725,.00025,43.0092,28.4042,288.0335,72.0244,0,U,57475,999,16322,-.26402524E-3,-.7509E-4,0
STARLINK-30161,2023-107V,2026-07-05T22:17:15.618336,15.27553326,.00013371,43.0022,28.0564,279.7854,80.2847,0,U,57476,999,16323,-.14586559E-3,-.427E-4,0
STARLINK-30176,2023-107W,2026-07-05T22:22:47.453952,15.27531817,.00013191,43.0023,28.0841,279.1346,80.9356,0,U,57477,999,16323,.63547892E-3,.1724E-3,0
STARLINK-30154,2023-113A,2026-07-06T00:23:00.121632,15.27547673,.00015526,42.9999,67.6462,254.9833,105.0847,0,U,57495,999,16161,-.30226874E-3,-.8562E-4,0
STARLINK-30145,2023-113B,2026-07-06T06:00:04.000320,15.27579726,.00018243,43.0004,66.5201,286.5006,204.3745,0,U,57496,999,525,.14632034E-2,.40222E-3,0
STARLINK-30226,2023-113C,2026-07-06T00:48:55.334592,15.27549273,.00011167,43.0006,67.8044,275.9405,84.1319,0,U,57497,999,16167,-.1372465E-3,-.4033E-4,0
STARLINK-30203,2023-113D,2026-07-06T00:15:38.534688,15.27545156,.00005452,43.0022,67.6215,300.3138,59.7660,0,U,57498,999,16179,-.86718383E-4,-.2645E-4,0
STARLINK-30169,2023-113E,2026-07-06T01:08:14.108928,15.27542234,.0000931,43.0003,53.4660,264.7010,95.3736,0,U,57499,999,16178,-.18144931E-3,-.5246E-4,0
STARLINK-30164,2023-113F,2026-07-06T00:41:31.927200,15.27560002,.00016218,42.9990,67.7478,283.3212,76.7459,0,U,57500,999,16177,-.88049537E-4,-.2683E-4,0
STARLINK-30072,2023-113G,2026-07-06T01:13:00.619968,15.27541882,.00002194,43.0033,67.9001,78.1414,281.9462,0,U,57501,999,16166,-.1826639E-3,-.5279E-4,0
