[ {"name": "STARLINK-30197", "line1": "1 57443U 23105P   26186.77921330 -.00005250  00000+0 -18147-3 0  9996", "line2": "2 57443  43.0034 312.8102 0002011 259.6123 100.4502 15.27562790163644"}, {"name": "STARLINK-30181", "line1": "1 57444U 23105Q   26186.78384505 -.00005802  00000+0 -20136-3 0  9999", "line2": "2 57444  43.0010 316.2532 0001296 279.5971  80.4734 15.27598923163663"}, {"name": "STARLINK-30215", "line1": "1 57445U 23105R   26186.74210991 -.00003180  00000+0 -10613-3 0  9999", "line2": "2 57445  43.0056 313.3926 0002234 271.0221  89.0375 15.27561445163471"}, {"name": "STARLINK-30162", "line1": "1 57446U 23105S   26186.39594065 -.00000715  00000+0 -16462-4 0  9998", "line2": "2 57446  43.0022 304.0529 0001559 203.7809 156.2971 15.27576402163719"}, {"name": "STARLINK-30178", "line1": "1 57447U 23105T   26186.41130448  .00000061  00000+0  11744-4 0  9993", "line2": "2 57447  43.0034 315.2087 0002047 274.3356  85.7262 15.27579844163587"}, {"name": "STARLINK-30196", "line1": "1 57448U 23105U   26186.44921769  .00016189  00000+0  59616-3 0  9998", "line2": "2 57448  43.0007 318.0374 0000882 262.1130  97.9622 15.27599677163398"}, {"name": "STARLINK-30225", "line1": "1 57449U 23105V   26186.78001675 -.00006213  00000+0 -21661-3 0  9999", "line2": "2 57449  43.0073 316.2188 0001713 278.8185  81.2473 15.27554833163668"}, {"name": "STARLINK-30217", "line1": "1 57450U 23105W   26186.39854916 -.00005276  00000+0 -18255-3 0  9995", "line2": "2 57450  43.0030 304.1226 0001464 236.1413 123.9300 15.27539092163715"}, {"name": "STARLINK-30216", "line1": "1 57451U 23105X   26186.75611241 -.00005192  00000+0 -17947-3 0  9992", "line2": "2 57451  43.0047 312.6510 0001850 264.9517  95.1123 15.27546516163483"}, {"name": "STARLINK-30165", "line1": "1 57457U 23107A   26186.83512204 -.00001072  00000+0 -29442-4 0  9995", "line2": "2 57457  43.0006  29.0776 0001910 247.8614 112.2035 15.27566810163204"}, {"name": "STARLINK-30140", "line1": "1 57458U 23107B   26186.87689514 -.00017858  00000+0 -64206-3 0  9994", "line2": "2 57458  43.0026  31.9422 0001720 280.8151  79.2507 15.27523644163180"}, {"name": "STARLINK-30077", "line1": "1 57460U 23107D   26186.98888815 -.00000787  00000+0 -19075-4 0  9992", "line2": "2 57460  43.0032  27.6592 0000657 298.1519  61.9266 15.27577126163249"}, {"name": "STARLINK-30229", "line1": "1 57461U 23107E   26186.99576076 -.00007690  00000+0 -27049-3 0  9996", "line2": "2 57461  43.0008  35.3790 0001311 261.9427  98.1276 15.27544795163152"}, {"name": "STARLINK-30088", "line1": "1 57462U 23107F   26186.84027426 -.00002679  00000+0 -87921-4 0  9999", "line2": "2 57462  43.0035  29.1152 0001352 258.6022 101.4678 15.27563737163213"}, {"name": "STARLINK-30116", "line1": "1 57465U 23107J   26186.82999647 -.00001007  00000+0 -27102-4 0  9992", "line2": "2 57465  43.0050  29.0390 0001137 257.3490 102.7234 15.27560574163210"}, {"name": "STARLINK-30092", "line1": "1 57467U 23107L   26186.89923632 -.00008147  00000+0 -28668-3 0  9991", "line2": "2 57467  43.0033  28.6973 0002980 280.9038  79.1478 15.27593670163223"}, {"name": "STARLINK-30039", "line1": "1 57468U 23107M   26186.96847891 -.00001017  00000+0 -27436-4 0  9994", "line2": "2 57468  43.0033  28.3564 0001514 264.1389  95.9290 15.27557452163239"}, {"name": "STARLINK-30171", "line1": "1 57469U 23107N   26186.94613250 -.00006370  00000+0 -22232-3 0  9998", "line2": "2 57469  43.0046  31.5982 0001819 281.2718  78.7929 15.27551790163190"}, {"name": "STARLINK-30186", "line1": "1 57470U 23107P   26187.25004630  .00169494  00000+0  31131-2 0  9993", "line2": "2 57470  43.0007  31.1104 0001871 283.8500 128.2081 15.47897046  5279"}, {"name": "STARLINK-30204", "line1": "1 57472U 23107R   26186.55816814 -.00003213  00000+0 -10734-3 0  9997", "line2": "2 57472  43.0054  30.4378 0000638 289.5084  70.5699 15.27564234163174"}, {"name": "STARLINK-30155", "line1": "1 57475U 23107U   26186.85942645 -.00007509  00000+0 -26403-3 0  9997", "line2": "2 57475  43.0092  28.4042 0002500 288.0335  72.0244 15.27525725163228"}, {"name": "STARLINK-30161", "line1": "1 57476U 23107V   26186.92865299 -.00004270  00000+0 -14587-3 0  9997", "line2": "2 57476  43.0022  28.0564 0001337 279.7854  80.2847 15.27553326163236"}, {"name": "STARLINK-30176", "line1": "1 57477U 23107W   26186.93249368  .00017240  00000+0  63548-3 0  9992", "line2": "2 57477  43.0023  28.0841 0001319 279.1346  80.9356 15.27531817163239"}, {"name": "STARLINK-30154", "line1": "1 57495U 23113A   26187.01597363 -.00008562  00000+0 -30227-3 0  9997", "line2": "2 57495  42.9999  67.6462 0001552 254.9833 105.0847 15.27547673161619"}, {"name": "STARLINK-30145", "line1": "1 57496U 23113B   26187.25004630  .00040222  00000+0  14632-2 0  9992", "line2": "2 57496  43.0004  66.5201 0001824 286.5006 204.3745 15.27579726  5254"}, {"name": "STARLINK-30226", "line1": "1 57497U 23113C   26187.03397378 -.00004033  00000+0 -13725-3 0  9998", "line2": "2 57497  43.0006  67.8044 0001116 275.9405  84.1319 15.27549273161679"}, {"name": "STARLINK-30203", "line1": "1 57498U 23113D   26187.01086267 -.00002645  00000+0 -86718-4 0  9999", "line2": "2 57498  43.0022  67.6215 0000545 300.3138  59.7660 15.27545156161793"}, {"name": "STARLINK-30169", "line1": "1 57499U 23113E   26187.04738552 -.00005246  00000+0 -18145-3 0  9992", "line2": "2 57499  43.0003  53.4660 0000931 264.7010  95.3736 15.27542234161784"}, {"name": "STARLINK-30164", "line1": "1 57500U 23113F   26187.02884175 -.00002683  00000+0 -88050-4 0  9991", "line2": "2 57500  42.9990  67.7478 0001621 283.3212  76.7459 15.27560002161770"}, {"name": "STARLINK-30072", "line1": "1 57501U 23113G   26187.05070162 -.00005279  00000+0 -18266-3 0  9993", "line2": "2 57501  43.0033  67.9001 0000219  78.1414 281.9462 15.27541882161668"}]